MALLIGYONG-1            
1 58400U 23179A   24016.58150415  .00008629  00000+0  38004-3 0  9993
2 58400  97.4241 265.6238 0017656  82.0264 278.2975 15.21930675  8518
